{
  "links" : {
    "next" : "https://api.nasa.gov/neo/rest/v1/feed?start_date=2012-09-09&end_date=2012-09-09&detailed=true&api_key=t0TVs3DtDT2H8Oy2Zy8m2eVrNsAVKAexjcZXUckd",
    "prev" : "https://api.nasa.gov/neo/rest/v1/feed?start_date=2012-09-07&end_date=2012-09-07&detailed=true&api_key=t0TVs3DtDT2H8Oy2Zy8m2eVrNsAVKAexjcZXUckd",
    "self" : "https://api.nasa.gov/neo/rest/v1/feed?start_date=2012-09-08&end_date=2012-09-08&detailed=true&api_key=t0TVs3DtDT2H8Oy2Zy8m2eVrNsAVKAexjcZXUckd"
  },
  "element_count" : 7,
  "near_earth_objects" : {
    "2012-09-08" : [ {
      "links" : {
        "self" : "https://api.nasa.gov/neo/rest/v1/neo/3670097?api_key=t0TVs3DtDT2H8Oy2Zy8m2eVrNsAVKAexjcZXUckd"
      },
      "neo_reference_id" : "3670097",
      "name" : "(2014 HA177)",
      "nasa_jpl_url" : "http://ssd.jpl.nasa.gov/sbdb.cgi?sstr=3670097",
      "absolute_magnitude_h" : 20.1,
      "estimated_diameter" : {
        "kilometers" : {
          "estimated_diameter_min" : 0.2538370294,
          "estimated_diameter_max" : 0.5675968529
        },
        "meters" : {
          "estimated_diameter_min" : 253.8370293645,
          "estimated_diameter_max" : 567.5968528656
        },
        "miles" : {
          "estimated_diameter_min" : 0.1577269688,
          "estimated_diameter_max" : 0.3526882241
        },
        "feet" : {
          "estimated_diameter_min" : 832.7986794202,
          "estimated_diameter_max" : 1862.1944587557
        }
      },
      "is_potentially_hazardous_asteroid" : false,
      "close_approach_data" : [ {
        "close_approach_date" : "2012-09-08",
        "epoch_date_close_approach" : 1347087600000,
        "relative_velocity" : {
          "kilometers_per_second" : "4.8566783185",
          "kilometers_per_hour" : "17484.0419464377",
          "miles_per_hour" : "10863.9037305518"
        },
        "miss_distance" : {
          "astronomical" : "0.4340495734",
          "lunar" : "168.8452911377",
          "kilometers" : "64932892",
          "miles" : "40347428"
        },
        "orbiting_body" : "Earth"
      } ],
      "orbital_data" : {
        "orbit_id" : "7",
        "orbit_determination_date" : "2017-04-06 08:41:17",
        "orbit_uncertainty" : "3",
        "minimum_orbit_intersection" : ".373284",
        "jupiter_tisserand_invariant" : "4.122",
        "epoch_osculation" : "2458000.5",
        "eccentricity" : ".2429743003288619",
        "semi_major_axis" : "1.714492671372874",
        "inclination" : "12.43931838324997",
        "ascending_node_longitude" : "37.79565417744982",
        "orbital_period" : "819.9773883219108",
        "perihelion_distance" : "1.297915014127089",
        "perihelion_argument" : "265.2059813471474",
        "aphelion_distance" : "2.131070328618659",
        "perihelion_time" : "2457752.355866588687",
        "mean_anomaly" : "108.9443310270922",
        "mean_motion" : ".4390364967706517",
        "equinox" : "J2000"
      }
    }, {
      "links" : {
        "self" : "https://api.nasa.gov/neo/rest/v1/neo/3743740?api_key=t0TVs3DtDT2H8Oy2Zy8m2eVrNsAVKAexjcZXUckd"
      },
      "neo_reference_id" : "3743740",
      "name" : "(2016 CK195)",
      "nasa_jpl_url" : "http://ssd.jpl.nasa.gov/sbdb.cgi?sstr=3743740",
      "absolute_magnitude_h" : 23.2,
      "estimated_diameter" : {
        "kilometers" : {
          "estimated_diameter_min" : 0.0608912622,
          "estimated_diameter_max" : 0.1361570015
        },
        "meters" : {
          "estimated_diameter_min" : 60.8912622106,
          "estimated_diameter_max" : 136.1570015386
        },
        "miles" : {
          "estimated_diameter_min" : 0.0378360645,
          "estimated_diameter_max" : 0.0846040122
        },
        "feet" : {
          "estimated_diameter_min" : 199.7744887109,
          "estimated_diameter_max" : 446.7093369279
        }
      },
      "is_potentially_hazardous_asteroid" : false,
      "close_approach_data" : [ {
        "close_approach_date" : "2012-09-08",
        "epoch_date_close_approach" : 1347087600000,
        "relative_velocity" : {
          "kilometers_per_second" : "17.1200627685",
          "kilometers_per_hour" : "61632.2259667228",
          "miles_per_hour" : "38295.8684069339"
        },
        "miss_distance" : {
          "astronomical" : "0.3721321923",
          "lunar" : "144.7594146729",
          "kilometers" : "55670184",
          "miles" : "34591848"
        },
        "orbiting_body" : "Earth"
      } ],
      "orbital_data" : {
        "orbit_id" : "9",
        "orbit_determination_date" : "2017-04-06 08:28:20",
        "orbit_uncertainty" : "6",
        "minimum_orbit_intersection" : ".0456029",
        "jupiter_tisserand_invariant" : "4.864",
        "epoch_osculation" : "2458000.5",
        "eccentricity" : ".303839640331227",
        "semi_major_axis" : "1.33294642278055",
        "inclination" : "5.232171578590667",
        "ascending_node_longitude" : "64.01734201149381",
        "orbital_period" : "562.1050241686953",
        "perihelion_distance" : ".9279444611021119",
        "perihelion_argument" : "355.6777478328365",
        "aphelion_distance" : "1.737948384458988",
        "perihelion_time" : "2457910.615124005287",
        "mean_anomaly" : "57.56674280923273",
        "mean_motion" : ".6404497105010026",
        "equinox" : "J2000"
      }
    }, {
      "links" : {
        "self" : "https://api.nasa.gov/neo/rest/v1/neo/3766128?api_key=t0TVs3DtDT2H8Oy2Zy8m2eVrNsAVKAexjcZXUckd"
      },
      "neo_reference_id" : "3766128",
      "name" : "(2016 YK4)",
      "nasa_jpl_url" : "http://ssd.jpl.nasa.gov/sbdb.cgi?sstr=3766128",
      "absolute_magnitude_h" : 26.1,
      "estimated_diameter" : {
        "kilometers" : {
          "estimated_diameter_min" : 0.0160160338,
          "estimated_diameter_max" : 0.0358129403
        },
        "meters" : {
          "estimated_diameter_min" : 16.0160337979,
          "estimated_diameter_max" : 35.8129403019
        },
        "miles" : {
          "estimated_diameter_min" : 0.0099518989,
          "estimated_diameter_max" : 0.0222531225
        },
        "feet" : {
          "estimated_diameter_min" : 52.5460443254,
          "estimated_diameter_max" : 117.4965270602
        }
      },
      "is_potentially_hazardous_asteroid" : false,
      "close_approach_data" : [ {
        "close_approach_date" : "2012-09-08",
        "epoch_date_close_approach" : 1347087600000,
        "relative_velocity" : {
          "kilometers_per_second" : "9.8147983897",
          "kilometers_per_hour" : "35333.2742030622",
          "miles_per_hour" : "21954.7225180083"
        },
        "miss_distance" : {
          "astronomical" : "0.3504608461",
          "lunar" : "136.3292694092",
          "kilometers" : "52428200",
          "miles" : "32577372"
        },
        "orbiting_body" : "Earth"
      } ],
      "orbital_data" : {
        "orbit_id" : "4",
        "orbit_determination_date" : "2017-04-06 08:21:21",
        "orbit_uncertainty" : "7",
        "minimum_orbit_intersection" : ".00561237",
        "jupiter_tisserand_invariant" : "6.762",
        "epoch_osculation" : "2458000.5",
        "eccentricity" : ".2400654379383799",
        "semi_major_axis" : ".8700770670200599",
        "inclination" : "10.13948201395056",
        "ascending_node_longitude" : "264.6960441121075",
        "orbital_period" : "296.4387748886068",
        "perihelion_distance" : ".6612016348857481",
        "perihelion_argument" : "43.81111645437009",
        "aphelion_distance" : "1.078952499154372",
        "perihelion_time" : "2457940.486275836325",
        "mean_anomaly" : "72.88162861636894",
        "mean_motion" : "1.214416029533511",
        "equinox" : "J2000"
      }
    } ]
  }
}